start=new Date('2023-01-31T00:00:00.000Z').valueOf();
sats=[{"SEMIMAJOR_AXIS":"6917.877","MEAN_ANOMALY":"278.7859","CENTER_NAME":"EARTH","PERIAPSIS":"539.019","LAUNCH_DATE":"2022-08-10","INCLINATION":"53.2187","FILE":"3765576","EPHEMERIS_TYPE":"0","GP_ID":"223998155","REV_AT_EPOCH":"2727","ARG_OF_PERICENTER":"81.3252","MEAN_MOTION":"15.08841049","TLE_LINE1":"1 53399U 22097M   23030.39531957  .00000932  00000-0  76640-4 0  9990","NORAD_CAT_ID":"53399","APOAPSIS":"540.466","RCS_SIZE":"LARGE","RA_OF_ASC_NODE":"176.1751","TIME_SYSTEM":"UTC","ELEMENT_SET_NO":"999","SITE":"AFETR","OBJECT_TYPE":"PAYLOAD","DECAY_DATE":null,"OBJECT_ID":"2022-097M","EPOCH":"2023-01-30T09:29:15.610848","REF_FRAME":"TEME","MEAN_MOTION_DDOT":"0.0000000000000","OBJECT_NAME":"STARLINK-4528","MEAN_ELEMENT_THEORY":"SGP4","COUNTRY_CODE":"US","MEAN_MOTION_DOT":"0.00000932","BSTAR":"0.00007664000000","TLE_LINE2":"2 53399  53.2187 176.1751 0001046  81.3252 278.7859 15.08841049 27271","PERIOD":"95.437","CLASSIFICATION_TYPE":"U","ECCENTRICITY":"0.00010460"},{"TLE_LINE2":"2 53400  53.2184 174.1861 0001295  89.1401 270.9740 15.08840779 27349","PERIOD":"95.438","CLASSIFICATION_TYPE":"U","ECCENTRICITY":"0.00012950","DECAY_DATE":null,"EPOCH":"2023-01-30T20:05:09.872448","OBJECT_ID":"2022-097N","REF_FRAME":"TEME","MEAN_MOTION_DDOT":"0.0000000000000","OBJECT_NAME":"STARLINK-4520","MEAN_ELEMENT_THEORY":"SGP4","COUNTRY_CODE":"US","MEAN_MOTION_DOT":"0.00000325","BSTAR":"0.00003853400000","EPHEMERIS_TYPE":"0","FILE":"3765849","ARG_OF_PERICENTER":"89.1401","GP_ID":"224056100","REV_AT_EPOCH":"2734","MEAN_MOTION":"15.08840779","TLE_LINE1":"1 53400U 22097N   23030.83691982  .00000325  00000-0  38534-4 0  9993","APOAPSIS":"540.639","NORAD_CAT_ID":"53400","TIME_SYSTEM":"UTC","RCS_SIZE":"LARGE","RA_OF_ASC_NODE":"174.1861","ELEMENT_SET_NO":"999","SITE":"AFETR","OBJECT_TYPE":"PAYLOAD","SEMIMAJOR_AXIS":"6917.878","MEAN_ANOMALY":"270.9740","CENTER_NAME":"EARTH","PERIAPSIS":"538.847","LAUNCH_DATE":"2022-08-10","INCLINATION":"53.2184"},{"SEMIMAJOR_AXIS":"6917.885","MEAN_ANOMALY":"272.3076","LAUNCH_DATE":"2022-08-10","PERIAPSIS":"538.755","CENTER_NAME":"EARTH","INCLINATION":"53.2176","MEAN_MOTION":"15.08838436","GP_ID":"223999146","REV_AT_EPOCH":"2728","ARG_OF_PERICENTER":"87.8081","EPHEMERIS_TYPE":"0","FILE":"3765576","RA_OF_ASC_NODE":"175.9093","RCS_SIZE":"LARGE","TIME_SYSTEM":"UTC","NORAD_CAT_ID":"53401","APOAPSIS":"540.746","TLE_LINE1":"1 53401U 22097P   23030.45420129  .00000082  00000-0  23244-4 0  9997","OBJECT_TYPE":"PAYLOAD","SITE":"AFETR","ELEMENT_SET_NO":"999","REF_FRAME":"TEME","OBJECT_ID":"2022-097P","EPOCH":"2023-01-30T10:54:02.991456","DECAY_DATE":null,"COUNTRY_CODE":"US","MEAN_MOTION_DDOT":"0.0000000000000","OBJECT_NAME":"STARLINK-4525","MEAN_ELEMENT_THEORY":"SGP4","BSTAR":"0.00002324400000","MEAN_MOTION_DOT":"0.00000082","TLE_LINE2":"2 53401  53.2176 175.9093 0001439  87.8081 272.3076 15.08838436 27284","PERIOD":"95.438","ECCENTRICITY":"0.00014390","CLASSIFICATION_TYPE":"U"},{"DECAY_DATE":null,"REF_FRAME":"TEME","OBJECT_ID":"2022-097Q","EPOCH":"2023-01-30T10:27:33.196032","COUNTRY_CODE":"US","MEAN_MOTION_DDOT":"0.0000000000000","MEAN_ELEMENT_THEORY":"SGP4","OBJECT_NAME":"STARLINK-4499","BSTAR":"0.00011511000000","MEAN_MOTION_DOT":"0.00001545","TLE_LINE2":"2 53402  53.2167 175.9772 0001055  93.6132 266.4981 15.08837079 27286","PERIOD":"95.438","CLASSIFICATION_TYPE":"U","ECCENTRICITY":"0.00010550","SEMIMAJOR_AXIS":"6917.889","MEAN_ANOMALY":"266.4981","CENTER_NAME":"EARTH","LAUNCH_DATE":"2022-08-10","PERIAPSIS":"539.024","INCLINATION":"53.2167","FILE":"3765576","EPHEMERIS_TYPE":"0","MEAN_MOTION":"15.08837079","REV_AT_EPOCH":"2728","GP_ID":"223999871","ARG_OF_PERICENTER":"93.6132","TLE_LINE1":"1 53402U 22097Q   23030.43580088  .00001545  00000-0  11511-3 0  9995","RA_OF_ASC_NODE":"175.9772","RCS_SIZE":"LARGE","TIME_SYSTEM":"UTC","APOAPSIS":"540.484","NORAD_CAT_ID":"53402","ELEMENT_SET_NO":"999","OBJECT_TYPE":"PAYLOAD","SITE":"AFETR"},{"MEAN_MOTION_DOT":"0.00001075","BSTAR":"0.00008564800000","MEAN_MOTION_DDOT":"0.0000000000000","MEAN_ELEMENT_THEORY":"SGP4","OBJECT_NAME":"STARLINK-4507","COUNTRY_CODE":"US","EPOCH":"2023-01-30T13:55:36.039936","OBJECT_ID":"2022-097R","REF_FRAME":"TEME","DECAY_DATE":null,"ECCENTRICITY":"0.00011110","CLASSIFICATION_TYPE":"U","PERIOD":"95.438","TLE_LINE2":"2 53403  53.2168 175.3308 0001111  85.0205 275.0914 15.08838336 26813","INCLINATION":"53.2168","PERIAPSIS":"538.982","LAUNCH_DATE":"2022-08-10","CENTER_NAME":"EARTH","MEAN_ANOMALY":"275.0914","SEMIMAJOR_AXIS":"6917.885","SITE":"AFETR","OBJECT_TYPE":"PAYLOAD","ELEMENT_SET_NO":"999","NORAD_CAT_ID":"53403","APOAPSIS":"540.519","RCS_SIZE":"LARGE","TIME_SYSTEM":"UTC","RA_OF_ASC_NODE":"175.3308","TLE_LINE1":"1 53403U 22097R   23030.58027824  .00001075  00000-0  85648-4 0  9997","GP_ID":"224031275","ARG_OF_PERICENTER":"85.0205","REV_AT_EPOCH":"2681","MEAN_MOTION":"15.08838336","FILE":"3765817","EPHEMERIS_TYPE":"0"},{"ECCENTRICITY":"0.00007030","CLASSIFICATION_TYPE":"U","TLE_LINE2":"2 53404  53.2184 165.7264 0000703  91.0540 269.0532 15.08827528 27429","PERIOD":"95.438","MEAN_ELEMENT_THEORY":"SGP4","MEAN_MOTION_DDOT":"0.0000000000000","OBJECT_NAME":"STARLINK-4509","COUNTRY_CODE":"US","MEAN_MOTION_DOT":"0.00003193","BSTAR":"0.00021865000000","EPOCH":"2023-01-30T11:48:22.161888","OBJECT_ID":"2022-097S","REF_FRAME":"TEME","DECAY_DATE":null,"SITE":"AFETR","OBJECT_TYPE":"PAYLOAD","ELEMENT_SET_NO":"999","GP_ID":"223998402","REV_AT_EPOCH":"2742","ARG_OF_PERICENTER":"91.0540","MEAN_MOTION":"15.08827528","FILE":"3765576","EPHEMERIS_TYPE":"0","NORAD_CAT_ID":"53404","APOAPSIS":"540.270","RCS_SIZE":"LARGE","TIME_SYSTEM":"UTC","RA_OF_ASC_NODE":"165.7264","TLE_LINE1":"1 53404U 22097S   23030.49192317  .00003193  00000-0  21865-3 0  9991","PERIAPSIS":"539.297","LAUNCH_DATE":"2022-08-10","CENTER_NAME":"EARTH","INCLINATION":"53.2184","SEMIMAJOR_AXIS":"6917.919","MEAN_ANOMALY":"269.0532"},{"EPOCH":"2023-01-30T19:54:34.065216","OBJECT_ID":"2022-097T","REF_FRAME":"TEME","DECAY_DATE":null,"MEAN_ELEMENT_THEORY":"SGP4","MEAN_MOTION_DDOT":"0.0000000000000","OBJECT_NAME":"STARLINK-4510","COUNTRY_CODE":"US","MEAN_MOTION_DOT":"-0.00000206","BSTAR":"0.00000513820000","TLE_LINE2":"2 53405  53.2164 174.2187 0001061  93.8767 266.2346 15.08838582 27341","PERIOD":"95.438","ECCENTRICITY":"0.00010610","CLASSIFICATION_TYPE":"U","SEMIMAJOR_AXIS":"6917.885","MEAN_ANOMALY":"266.2346","PERIAPSIS":"539.016","LAUNCH_DATE":"2022-08-10","CENTER_NAME":"EARTH","INCLINATION":"53.2164","GP_ID":"224056848","ARG_OF_PERICENTER":"93.8767","REV_AT_EPOCH":"2734","MEAN_MOTION":"15.08838582","FILE":"3765849","EPHEMERIS_TYPE":"0","APOAPSIS":"540.484","NORAD_CAT_ID":"53405","RCS_SIZE":"LARGE","RA_OF_ASC_NODE":"174.2187","TIME_SYSTEM":"UTC","TLE_LINE1":"1 53405U 22097T   23030.82956094 -.00000206  00000-0  51382-5 0  9991","SITE":"AFETR","OBJECT_TYPE":"PAYLOAD","ELEMENT_SET_NO":"999"},{"BSTAR":"0.00003145300000","MEAN_MOTION_DOT":"0.00000213","COUNTRY_CODE":"US","MEAN_MOTION_DDOT":"0.0000000000000","OBJECT_NAME":"STARLINK-4533","MEAN_ELEMENT_THEORY":"SGP4","DECAY_DATE":null,"REF_FRAME":"TEME","OBJECT_ID":"2022-097U","EPOCH":"2023-01-30T11:21:52.651584","CLASSIFICATION_TYPE":"U","ECCENTRICITY":"0.00010380","PERIOD":"95.438","TLE_LINE2":"2 53406  53.2182 165.8080 0001038  79.8899 280.2210 15.08827207 27421","INCLINATION":"53.2182","CENTER_NAME":"EARTH","LAUNCH_DATE":"2022-08-10","PERIAPSIS":"539.066","MEAN_ANOMALY":"280.2210","SEMIMAJOR_AXIS":"6917.919","ELEMENT_SET_NO":"999","OBJECT_TYPE":"PAYLOAD","SITE":"AFETR","TLE_LINE1":"1 53406U 22097U   23030.47352606  .00000213  00000-0  31453-4 0  9995","RCS_SIZE":"LARGE","TIME_SYSTEM":"UTC","RA_OF_ASC_NODE":"165.8080","APOAPSIS":"540.503","NORAD_CAT_ID":"53406","EPHEMERIS_TYPE":"0","FILE":"3765576","MEAN_MOTION":"15.08827207","REV_AT_EPOCH":"2742","GP_ID":"223999381","ARG_OF_PERICENTER":"79.8899"},{"TLE_LINE2":"2 53407  53.2174 156.0111 0001213  86.4855 273.6276 15.08841144 27560","PERIOD":"95.437","CLASSIFICATION_TYPE":"U","ECCENTRICITY":"0.00012130","DECAY_DATE":null,"REF_FRAME":"TEME","OBJECT_ID":"2022-097V","EPOCH":"2023-01-30T11:33:49.816512","COUNTRY_CODE":"US","MEAN_MOTION_DDOT":"0.0000000000000","MEAN_ELEMENT_THEORY":"SGP4","OBJECT_NAME":"STARLINK-4537","BSTAR":"-0.00001942000000","MEAN_MOTION_DOT":"-0.00000597","FILE":"3765576","EPHEMERIS_TYPE":"0","MEAN_MOTION":"15.08841144","ARG_OF_PERICENTER":"86.4855","GP_ID":"223998156","REV_AT_EPOCH":"2756","TLE_LINE1":"1 53407U 22097V   23030.48182658 -.00000597  00000-0 -19420-4 0  9992","RCS_SIZE":"LARGE","RA_OF_ASC_NODE":"156.0111","TIME_SYSTEM":"UTC","APOAPSIS":"540.581","NORAD_CAT_ID":"53407","ELEMENT_SET_NO":"999","OBJECT_TYPE":"PAYLOAD","SITE":"AFETR","SEMIMAJOR_AXIS":"6917.877","MEAN_ANOMALY":"273.6276","CENTER_NAME":"EARTH","PERIAPSIS":"538.903","LAUNCH_DATE":"2022-08-10","INCLINATION":"53.2174"},{"MEAN_ANOMALY":"264.2532","SEMIMAJOR_AXIS":"6917.896","INCLINATION":"53.2170","PERIAPSIS":"538.897","LAUNCH_DATE":"2022-08-10","CENTER_NAME":"EARTH","TIME_SYSTEM":"UTC","RCS_SIZE":"LARGE","RA_OF_ASC_NODE":"165.7612","APOAPSIS":"540.626","NORAD_CAT_ID":"53408","TLE_LINE1":"1 53408U 22097W   23030.48456599  .00000358  00000-0  40581-4 0  9996","MEAN_MOTION":"15.08834762","GP_ID":"223998901","REV_AT_EPOCH":"2742","ARG_OF_PERICENTER":"95.8602","FILE":"3765576","EPHEMERIS_TYPE":"0","OBJECT_TYPE":"PAYLOAD","SITE":"AFETR","ELEMENT_SET_NO":"999","REF_FRAME":"TEME","OBJECT_ID":"2022-097W","EPOCH":"2023-01-30T11:37:46.501536","DECAY_DATE":null,"BSTAR":"0.00004058100000","MEAN_MOTION_DOT":"0.00000358","COUNTRY_CODE":"US","MEAN_ELEMENT_THEORY":"SGP4","MEAN_MOTION_DDOT":"0.0000000000000","OBJECT_NAME":"STARLINK-4491","PERIOD":"95.438","TLE_LINE2":"2 53408  53.2170 165.7612 0001250  95.8602 264.2532 15.08834762 27429","ECCENTRICITY":"0.00012500","CLASSIFICATION_TYPE":"U"}];
